[{"OBJECT_NAME":"TEVEL2-8","OBJECT_ID":"2025-052AF","EPOCH":"2026-03-09T16:02:08.542752","MEAN_MOTION":15.28392908,"ECCENTRICITY":0.0008031,"INCLINATION":97.4055,"RA_OF_ASC_NODE":324.2923,"ARG_OF_PERICENTER":124.9191,"MEAN_ANOMALY":235.2804,"EPHEMERIS_TYPE":0,"CLASSIFICATION_TYPE":"U","NORAD_CAT_ID":63239,"ELEMENT_SET_NO":999,"REV_AT_EPOCH":5480,"BSTAR":0.00069303947,"MEAN_MOTION_DOT":0.0001913,"MEAN_MOTION_DDOT":0},{"OBJECT_NAME":"STARLINK-34055","OBJECT_ID":"2025-092R","EPOCH":"2026-03-09T15:18:54.957312","MEAN_MOTION":15.27570771,"ECCENTRICITY":0.000183,"INCLINATION":42.9959,"RA_OF_ASC_NODE":173.0806,"ARG_OF_PERICENTER":290.3213,"MEAN_ANOMALY":69.7442,"EPHEMERIS_TYPE":0,"CLASSIFICATION_TYPE":"U","NORAD_CAT_ID":63819,"ELEMENT_SET_NO":999,"REV_AT_EPOCH":4860,"BSTAR":0.0013864,"MEAN_MOTION_DOT":0.00038075,"MEAN_MOTION_DDOT":0}]
