TEVEL2-8                
1 63239U 25052AF  26068.66815442  .00019130  00000+0  69304-3 0  9993
2 63239  97.4055 324.2923 0008031 124.9191 235.2804 15.28392908 54807
STARLINK-34055          
1 63819U 25092R   26068.63813608  .00038075  00000+0  13864-2 0  9998
2 63819  42.9959 173.0806 0001830 290.3213  69.7442 15.27570771 48606
